STARLINK-32024          
1 60112U 24117X   24184.66668981 -.00865400  23790-3 -24192-2 0  9993
2 60112  53.1500  22.3068 0000744  86.2577 357.5108 15.92941266  2553
STARLINK-11201 [DTC]    
1 60113U 24118A   24184.83335648 -.01499295  00000+0 -74563-2 0  9993
2 60113  53.1689  15.5806 0000890  69.3380  98.9448 15.83909242  2261
STARLINK-11198 [DTC]    
1 60114U 24118B   24184.83335648 -.01161697  00000+0 -55803-2 0  9992
2 60114  53.1689  15.5682 0001240  76.8229  97.3928 15.84384361  2265
STARLINK-11112 [DTC]    
1 60115U 24118C   24184.83335648 -.00857252  00000+0 -39932-2 0  9996
2 60115  53.1688  15.5576 0000787  52.5944 126.9242 15.84706717  2482
STARLINK-11210 [DTC]    
1 60116U 24118D   24184.83335648 -.00836309  00000+0 -38154-2 0  9992
2 60116  53.1688  15.5456 0001172  63.7493 121.2040 15.85082352  2265
STARLINK-11203 [DTC]    
1 60117U 24118E   24184.83335648 -.00817795  00000+0 -36583-2 0  9995
2 60117  53.1688  15.5353 0000951  68.2700 121.7638 15.85444070  2422
STARLINK-11177 [DTC]    
1 60118U 24118F   24184.83335648 -.00804988  00000+0 -35373-2 0  9992
2 60118  53.1687  15.5247 0000865  60.1666 135.0570 15.85779887  2420
STARLINK-11127 [DTC]    
1 60119U 24118G   24184.83335648 -.00797793  00000+0 -34491-2 0  9998
2 60119  53.1687  15.5135 0000738  53.6404 146.9645 15.86095955  2267
STARLINK-11164 [DTC]    
1 60120U 24118H   24184.83335648 -.00777874  00000+0 -33031-2 0  9997
2 60120  53.1687  15.5048 0000776  52.4570 152.3799 15.86414489  2487
STARLINK-11119 [DTC]    
1 60121U 24118J   24184.83335648 -.00756728  00000+0 -31148-2 0  9990
2 60121  53.1683  15.4853 0001063  83.4455 131.0058 15.86993459  2428
STARLINK-11157 [DTC]    
1 60122U 24118K   24184.83335648 -.00765603  00000+0 -31990-2 0  9998
2 60122  53.1687  15.4951 0000921  64.8473 144.6052 15.86711671  2166
STARLINK-11162 [DTC]    
1 60123U 24118L   24184.83335648 -.00745368  00000+0 -30226-2 0  9996
2 60123  53.1687  15.4757 0000834  60.9650 157.8857 15.87269794  2106
STARLINK-11161 [DTC]    
1 60124U 24118M   24184.83335648 -.00737970  00000+0 -29506-2 0  9996
2 60124  53.1684  15.4663 0000770  66.4801 156.9718 15.87537316  2427
STARLINK-11160 [DTC]    
1 60125U 24118N   24184.83335648 -.00735993  00000+0 -29035-2 0  9997
2 60125  53.1683  15.4566 0001011  51.6156 176.5520 15.87799674  2489
STARLINK-31846          
1 60126U 24118P   24184.83335648 -.00886693  00000+0 -39396-2 0  9993
2 60126  53.1681  15.4958 0001015  70.8247 137.9156 15.85746462  2482
STARLINK-31840          
1 60127U 24118Q   24184.83335648 -.00901339  00000+0 -40001-2 0  9994
2 60127  53.1679  15.4898 0000822  53.6499 157.9654 15.85806401  2414
STARLINK-31813          
1 60128U 24118R   24184.83335648 -.00918990  00000+0 -40732-2 0  9997
2 60128  53.1681  15.4827 0001024  61.1111 154.0303 15.85872882  2415
STARLINK-31845          
1 60129U 24118S   24184.83335648 -.00934242  00000+0 -41354-2 0  9997
2 60129  53.1682  15.4764 0001152  73.9657 144.4691 15.85934713  2410
STARLINK-31838          
1 60130U 24118T   24184.83335648 -.00961358  00000+0 -42459-2 0  9994
2 60130  53.1681  15.4642 0000845  56.6056 167.6578 15.86048208  2412
STARLINK-31785          
1 60131U 24118U   24184.83335648 -.00950471  00000+0 -42033-2 0  9997
2 60131  53.1682  15.4700 0001085  59.0096 162.2723 15.85993245  2419
STARLINK-31792          
1 60132U 24118V   24184.83335648 -.00976420  00000+0 -43079-2 0  9991
2 60132  53.1683  15.4585 0001076  68.0104 158.9739 15.86103488  2414
GOES-U                  
1 60133U 24119A   24183.67782573 -.00000113  00000+0  00000+0 0  9997
2 60133   3.3149  95.4909 2443128 179.8197 248.7149  1.41768745   106
FALCON HEAVY R/B        
1 60134U 24119B   24184.11430843 -.00000117  00000+0  00000+0 0  9992
2 60134   4.3358  95.3919 3015680 179.8208 179.9720  1.51715279   107
ZHONGXING-3A            
1 60179U 24122A   24181.68107238 -.00000084  00000+0  00000+0 0  9996
2 60179  15.4778 118.1248 7297127 179.7551 134.9782  2.28054641    08
CZ-7A R/B               
1 60180U 24122B   24184.22459048  .00328859  18050-6  20536-2 0  9992
2 60180  15.4784 117.1286 7228670 180.6987 177.0278  2.40470855    66
ALOS-4 (DAICHI-4)       
1 60182U 24123A   24184.39511773 -.00000054  00000+0  00000+0 0  9992
2 60182  97.8729 280.8418 0002642  99.1801 302.5909 14.86041878   188
NOAA 1                  
1 04793U 70106A   24184.73920753 -.00000034  00000+0  59088-4 0  9993
2 04793 101.4448 236.3527 0031041 306.9925 163.2674 12.54029160451625
NOAA 2 (ITOS-D)         
1 06235U 72082A   24184.58143737 -.00000018  00000+0  17960-3 0  9997
2 06235 102.0147 183.7307 0004529  91.4164  21.1770 12.53181872365434
NOAA 3                  
1 06920U 73086A   24184.61978524 -.00000029  00000+0  12504-3 0  9998
2 06920 102.2754 180.7437 0006638   1.5685 114.6644 12.40368158293309
NOAA 4                  
1 07529U 74089A   24184.86634681 -.00000024  00000+0  14305-3 0  9994
2 07529 101.9870 179.2721 0009360 116.8464 305.7659 12.53181168270299
NOAA 5                  
1 09057U 76077A   24184.56622074 -.00000031  00000+0  11320-3 0  9993
2 09057 102.2075 157.9665 0009297 205.6440 275.5629 12.37801540166052
TIROS N                 
1 11060U 78096A   24184.58180796  .00000344  00000+0  18551-3 0  9994
2 11060  98.5310 224.4001 0011207 146.2787 213.9104 14.18839741577392
NOAA 6                  
1 11416U 79057A   24184.59700524  .00000611  00000+0  23224-3 0  9995
2 11416  98.6280 205.8012 0009468 208.6939 151.3726 14.34556524348469
NOAA 7                  
1 12553U 81059A   24184.57968601  .00000118  00000+0  80289-4 0  9990
2 12553  98.8928 243.9173 0012077 146.4929 213.7012 14.17538708223493
NOAA 8                  
1 13923U 83022A   24184.61498512  .00000298  00000+0  13466-3 0  9999
2 13923  98.7297 184.6057 0014788 183.7090 176.3984 14.29267114148973
NOAA 9                  
1 15427U 84123A   24184.85383215  .00000246  00000+0  14667-3 0  9999
2 15427  99.1177 182.6745 0014173 208.6232 217.5082 14.16612489 42505
NOAA 10                 
1 16969U 86073A   24184.89555039  .00000288  00000+0  13204-3 0  9998
2 16969  98.6409 170.6808 0010972 288.4332 137.4530 14.28640272967650
NOAA 11                 
1 19531U 88089A   24184.83793570  .00000129  00000+0  86921-4 0  9994
2 19531  98.5188 146.7137 0010930 183.7427 176.3668 14.15547126846656
NOAA 12                 
1 21263U 91032A   24184.84955987  .00000248  00000+0  12109-3 0  9992
2 21263  98.5576 175.6120 0012921 320.2167  39.8065 14.26329881723371
NOAA 13                 
1 22739U 93050A   24184.86277296  .00000231  00000+0  14597-3 0  9990
2 22739  98.6067 141.7720 0009840  15.8022 344.3456 14.13231307592709
NOAA 14                 
1 23455U 94089A   24184.86599351  .00000132  00000+0  89992-4 0  9990
2 23455  98.4320 180.0025 0009106 344.8966  15.1935 14.14405264522452
NOAA 15                 
1 25338U 98030A   24184.80686665  .00000369  00000+0  17073-3 0  9993
2 25338  98.5675 211.6071 0009064 280.1670  79.8488 14.26617331359661
NOAA 16                 
1 26536U 00055A   24184.58431634  .00000159  00000+0  10648-3 0  9991
2 26536  98.5302 223.4778 0010337 185.3988 174.7076 14.13594770522754
NOAA 17                 
1 27453U 02032A   24184.86042089  .00000312  00000+0  15082-3 0  9998
2 27453  98.7635 135.4434 0010518 263.2218  96.7765 14.25604651145198
NOAA 18                 
1 28654U 05018A   24184.78384312  .00000329  00000+0  19934-3 0  9996
2 28654  98.8743 261.6195 0014477  23.7117 336.4719 14.13243761985467
NOAA 19                 
1 33591U 09005A   24184.80824375  .00000313  00000+0  19232-3 0  9997
2 33591  99.0463 240.7723 0012886 246.1577 113.8245 14.13038776793830
SUOMI NPP               
1 37849U 11061A   24184.83106480  .00000131  00000+0  83112-4 0  9992
2 37849  98.7223 122.5767 0000845 132.9308 227.1939 14.19524277657088
NOAA 20 (JPSS-1)        
1 43013U 17073A   24184.84832351  .00000144  00000+0  89015-4 0  9997
2 43013  98.7065 122.5083 0001602 133.9287 226.2022 14.19538548343128
NOAA 21 (JPSS-2)        
1 54234U 22150A   24184.53154945  .00000155  00000+0  94181-4 0  9990
2 54234  98.7519 122.2458 0001947  91.2324 268.9075 14.19533056 85158
ISS (ZARYA)             
1 25544U 98067A   24184.63556554  .00014678  00000+0  26880-3 0  9990
2 25544  51.6390 238.7779 0009892  22.4764 111.9964 15.49519631460940
CSS (TIANHE)            
1 48274U 21035A   24184.76066932  .00040794  00000+0  43391-3 0  9990
2 48274  41.4689 348.0938 0004988 317.0835  42.9615 15.63232575181534
ISS (NAUKA)             
1 49044U 21066A   24184.48251404  .00013552  00000+0  24887-3 0  9990
2 49044  51.6383 239.5400 0010055  22.0882 338.0538 15.49513300166391
FREGAT DEB              
1 49271U 11037PF  24184.72604503  .00038996  00000+0  75788-1 0  9991
2 49271  51.6771 303.3282 1002386 158.8578 205.6934 12.18200806137092
CSS (WENTIAN)           
1 53239U 22085A   24184.50512156  .00040757  00000+0  43390-3 0  9997
2 53239  41.4685 349.6542 0004978 315.5001  44.5439 15.63210818102476
CSS (MENGTIAN)          
1 54216U 22143A   24184.50512156  .00040757  00000+0  43390-3 0  9998
2 54216  41.4685 349.6542 0004978 315.5001  44.5439 15.63210818 93628
TIANZHOU-7              
1 58811U 24013A   24184.50512156  .00040757  00000+0  43390-3 0  9991
2 58811  41.4685 349.6542 0004978 315.5001  44.5439 15.63210818179718
CYGNUS NG-20            
1 58898U 24021A   24184.48251404  .00013552  00000+0  24887-3 0  9991
2 58898  51.6383 239.5400 0010055  22.0882 338.0538 15.49513300 22782
PROGRESS-MS 26          
1 58961U 24029A   24184.48251404  .00013552  00000+0  24887-3 0  9990
2 58961  51.6383 239.5400 0010055  22.0882 338.0538 15.49513300 21311
